ORBCOMM-X               
1 21576U 91050C   25192.15659308  .00000193  00000+0  69982-4 0  9992
2 21576  98.3427 258.2667 0004860 109.3985 250.7731 14.43276630785792
ORBCOMM FM01            
1 23545U 95017A   25191.82787624  .00002796  00000+0  29634-3 0  9993
2 23545  69.9633  15.1748 0005470 269.5263  90.5264 14.90261440616035
ORBCOMM FM02            
1 23546U 95017B   25191.75661312  .00003560  00000+0  36652-3 0  9999
2 23546  69.9646  34.6676 0006859 270.4148  89.6221 14.91166275615673
ORBCOMM FM08            
1 25112U 97084A   25192.15708457  .00000569  00000+0  19909-3 0  9995
2 25112  45.0134 252.7952 0005522 345.9932  14.0766 14.45861530445016
ORBCOMM FM10            
1 25113U 97084B   25191.38154721  .00000548  00000+0  19406-3 0  9998
2 25113  45.0149 258.9393 0005507 304.4185  55.6145 14.45647761619870
ORBCOMM FM11            
1 25114U 97084C   25192.21952517  .00000576  00000+0  20308-3 0  9995
2 25114  45.0133 255.5942 0006134 312.6992  47.3342 14.45399111444989
ORBCOMM FM12            
1 25115U 97084D   25192.18166069  .00000550  00000+0  19551-3 0  9991
2 25115  45.0142 255.5237 0005359 306.0124  54.0230 14.45419295444986
ORBCOMM FM09            
1 25116U 97084E   25192.21604468  .00000555  00000+0  19735-3 0  9995
2 25116  45.0145 256.3153 0006900 302.8421  57.1766 14.45294522444985
